{
  "norad_id": 60423,
  "name": "ASBM-2",
  "history": [
    {
      "epoch": "2026-03-25T09:41:36.160800Z",
      "apogee_km": 43726.17312435999,
      "perigee_km": 7868.42132810585,
      "latitude_deg": 8.942515094352566e-05,
      "longitude_deg": 80.50511752211094,
      "height_km": 15985.36576913434,
      "semi_major_axis_km": 32175.434226232923,
      "eccentricity": 0.5572225,
      "inclination_deg": 62.7647,
      "raan_deg": 48.8273,
      "arg_perigee_deg": 269.2037,
      "mean_anomaly_deg": 30.1463,
      "mean_motion_rev_day": 1.50423655
    },
    {
      "epoch": "2026-04-01T17:11:52.071360Z",
      "apogee_km": 43731.63237223729,
      "perigee_km": 7862.73363735986,
      "latitude_deg": 0.00010984465985971675,
      "longitude_deg": -39.57010805209107,
      "height_km": 15987.193840403459,
      "semi_major_axis_km": 32175.320004798574,
      "eccentricity": 0.5573977,
      "inclination_deg": 62.77,
      "raan_deg": 48.5437,
      "arg_perigee_deg": 269.2183,
      "mean_anomaly_deg": 30.1451,
      "mean_motion_rev_day": 1.50424456
    }
  ]
}